[{"OBJECT_NAME":"OBJECT H","OBJECT_ID":"2025-155H","EPOCH":"2026-03-09T22:09:58.611456","MEAN_MOTION":15.27590961,"ECCENTRICITY":0.00081993,"INCLINATION":97.4482,"RA_OF_ASC_NODE":37.3122,"ARG_OF_PERICENTER":152.0629,"MEAN_ANOMALY":208.1051,"EPHEMERIS_TYPE":0,"CLASSIFICATION_TYPE":"U","NORAD_CAT_ID":64883,"ELEMENT_SET_NO":999,"REV_AT_EPOCH":6559,"BSTAR":0.00050403256,"MEAN_MOTION_DOT":0.00013547,"MEAN_MOTION_DDOT":0},{"OBJECT_NAME":"STARLINK-35638","OBJECT_ID":"2025-240Z","EPOCH":"2026-03-09T05:06:39.453696","MEAN_MOTION":15.30190887,"ECCENTRICITY":0.0001351,"INCLINATION":53.1589,"RA_OF_ASC_NODE":65.1441,"ARG_OF_PERICENTER":64.8493,"MEAN_ANOMALY":295.2648,"EPHEMERIS_TYPE":0,"CLASSIFICATION_TYPE":"U","NORAD_CAT_ID":66169,"ELEMENT_SET_NO":999,"REV_AT_EPOCH":2191,"BSTAR":0.00040601082,"MEAN_MOTION_DOT":0.00011681,"MEAN_MOTION_DDOT":0}]
